ONEWEB-0661             
1 55821U 23029AB  23337.42750635 -.00000058  00000+0 -18959-3 0  9996
2 55821  87.8968 114.2130 0000992  93.3175 266.8068 13.14505916 37639
ONEWEB-0662             
1 55822U 23029AC  23337.84300743  .00000728  00000+0  19286-2 0  9999
2 55822  87.8971 114.1384 0001132 112.5385 247.5864 13.14500686 38447
ONEWEB-0663             
1 55823U 23029AD  23337.84427622  .00000147  00000+0  33070-3 0  9999
2 55823  87.9193  98.8673 0001152 115.0423 245.0830 13.20769582 39544
ONEWEB-0664             
1 55824U 23029AE  23337.83795976  .00000082  00000+0  16887-3 0  9994
2 55824  87.9194  98.8805 0001315  85.1135 275.0149 13.20772176 39551
ONEWEB-0665             
1 55825U 23029AF  23337.80492166 -.00000531  00000+0 -14671-2 0  9996
2 55825  87.8967 114.1131 0001074  99.7048 260.4203 13.14502478 38398
ONEWEB-0666             
1 55826U 23029AG  23337.83163863  .00000114  00000+0  24830-3 0  9993
2 55826  87.9194  98.8731 0002065  97.6620 262.4748 13.20768959 39550
ONEWEB-0667             
1 55827U 23029AH  23337.37076136 -.00000535  00000+0 -13481-2 0  9997
2 55827  87.9194  98.8994 0001109  95.8092 264.3168 13.20771109 38808
ONEWEB-0669             
1 55828U 23029AJ  23337.36544460 -.00000030  00000+0 -10669-3 0  9993
2 55828  87.9194  98.9392 0002140  79.1532 280.9842 13.20770338 38808
