<?xml version="1.0" encoding="UTF-8"?>
<ndm xmlns:xsi="http://www.w3.org/2001/XMLSchema-instance" xsi:noNamespaceSchemaLocation="https://sanaregistry.org/r/ndmxml_unqualified/ndmxml-2.0.0-master-2.0.xsd">
<omm id="CCSDS_OMM_VERS" version="2.0">
<header><CREATION_DATE/><ORIGINATOR/></header><body><segment><metadata><OBJECT_NAME>ONEWEB-0661</OBJECT_NAME><OBJECT_ID>2023-029AB</OBJECT_ID><CENTER_NAME>EARTH</CENTER_NAME><REF_FRAME>TEME</REF_FRAME><TIME_SYSTEM>UTC</TIME_SYSTEM><MEAN_ELEMENT_THEORY>SGP4</MEAN_ELEMENT_THEORY></metadata><data><meanElements><EPOCH>2023-12-03T10:15:36.548640</EPOCH><MEAN_MOTION>13.14505916</MEAN_MOTION><ECCENTRICITY>.0000992</ECCENTRICITY><INCLINATION>87.8968</INCLINATION><RA_OF_ASC_NODE>114.2130</RA_OF_ASC_NODE><ARG_OF_PERICENTER>93.3175</ARG_OF_PERICENTER><MEAN_ANOMALY>266.8068</MEAN_ANOMALY></meanElements><tleParameters><EPHEMERIS_TYPE>0</EPHEMERIS_TYPE><CLASSIFICATION_TYPE>U</CLASSIFICATION_TYPE><NORAD_CAT_ID>55821</NORAD_CAT_ID><ELEMENT_SET_NO>999</ELEMENT_SET_NO><REV_AT_EPOCH>3763</REV_AT_EPOCH><BSTAR>-.18959E-3</BSTAR><MEAN_MOTION_DOT>-.58E-6</MEAN_MOTION_DOT><MEAN_MOTION_DDOT>0</MEAN_MOTION_DDOT></tleParameters></data></segment></body></omm>
<omm id="CCSDS_OMM_VERS" version="2.0">
<header><CREATION_DATE/><ORIGINATOR/></header><body><segment><metadata><OBJECT_NAME>ONEWEB-0662</OBJECT_NAME><OBJECT_ID>2023-029AC</OBJECT_ID><CENTER_NAME>EARTH</CENTER_NAME><REF_FRAME>TEME</REF_FRAME><TIME_SYSTEM>UTC</TIME_SYSTEM><MEAN_ELEMENT_THEORY>SGP4</MEAN_ELEMENT_THEORY></metadata><data><meanElements><EPOCH>2023-12-03T20:13:55.841952</EPOCH><MEAN_MOTION>13.14500686</MEAN_MOTION><ECCENTRICITY>.0001132</ECCENTRICITY><INCLINATION>87.8971</INCLINATION><RA_OF_ASC_NODE>114.1384</RA_OF_ASC_NODE><ARG_OF_PERICENTER>112.5385</ARG_OF_PERICENTER><MEAN_ANOMALY>247.5864</MEAN_ANOMALY></meanElements><tleParameters><EPHEMERIS_TYPE>0</EPHEMERIS_TYPE><CLASSIFICATION_TYPE>U</CLASSIFICATION_TYPE><NORAD_CAT_ID>55822</NORAD_CAT_ID><ELEMENT_SET_NO>999</ELEMENT_SET_NO><REV_AT_EPOCH>3844</REV_AT_EPOCH><BSTAR>.19286E-2</BSTAR><MEAN_MOTION_DOT>.728E-5</MEAN_MOTION_DOT><MEAN_MOTION_DDOT>0</MEAN_MOTION_DDOT></tleParameters></data></segment></body></omm>
<omm id="CCSDS_OMM_VERS" version="2.0">
<header><CREATION_DATE/><ORIGINATOR/></header><body><segment><metadata><OBJECT_NAME>ONEWEB-0663</OBJECT_NAME><OBJECT_ID>2023-029AD</OBJECT_ID><CENTER_NAME>EARTH</CENTER_NAME><REF_FRAME>TEME</REF_FRAME><TIME_SYSTEM>UTC</TIME_SYSTEM><MEAN_ELEMENT_THEORY>SGP4</MEAN_ELEMENT_THEORY></metadata><data><meanElements><EPOCH>2023-12-03T20:15:45.465408</EPOCH><MEAN_MOTION>13.20769582</MEAN_MOTION><ECCENTRICITY>.0001152</ECCENTRICITY><INCLINATION>87.9193</INCLINATION><RA_OF_ASC_NODE>98.8673</RA_OF_ASC_NODE><ARG_OF_PERICENTER>115.0423</ARG_OF_PERICENTER><MEAN_ANOMALY>245.0830</MEAN_ANOMALY></meanElements><tleParameters><EPHEMERIS_TYPE>0</EPHEMERIS_TYPE><CLASSIFICATION_TYPE>U</CLASSIFICATION_TYPE><NORAD_CAT_ID>55823</NORAD_CAT_ID><ELEMENT_SET_NO>999</ELEMENT_SET_NO><REV_AT_EPOCH>3954</REV_AT_EPOCH><BSTAR>.3307E-3</BSTAR><MEAN_MOTION_DOT>.147E-5</MEAN_MOTION_DOT><MEAN_MOTION_DDOT>0</MEAN_MOTION_DDOT></tleParameters></data></segment></body></omm>
<omm id="CCSDS_OMM_VERS" version="2.0">
<header><CREATION_DATE/><ORIGINATOR/></header><body><segment><metadata><OBJECT_NAME>ONEWEB-0664</OBJECT_NAME><OBJECT_ID>2023-029AE</OBJECT_ID><CENTER_NAME>EARTH</CENTER_NAME><REF_FRAME>TEME</REF_FRAME><TIME_SYSTEM>UTC</TIME_SYSTEM><MEAN_ELEMENT_THEORY>SGP4</MEAN_ELEMENT_THEORY></metadata><data><meanElements><EPOCH>2023-12-03T20:06:39.723264</EPOCH><MEAN_MOTION>13.20772176</MEAN_MOTION><ECCENTRICITY>.0001315</ECCENTRICITY><INCLINATION>87.9194</INCLINATION><RA_OF_ASC_NODE>98.8805</RA_OF_ASC_NODE><ARG_OF_PERICENTER>85.1135</ARG_OF_PERICENTER><MEAN_ANOMALY>275.0149</MEAN_ANOMALY></meanElements><tleParameters><EPHEMERIS_TYPE>0</EPHEMERIS_TYPE><CLASSIFICATION_TYPE>U</CLASSIFICATION_TYPE><NORAD_CAT_ID>55824</NORAD_CAT_ID><ELEMENT_SET_NO>999</ELEMENT_SET_NO><REV_AT_EPOCH>3955</REV_AT_EPOCH><BSTAR>.16887E-3</BSTAR><MEAN_MOTION_DOT>.82E-6</MEAN_MOTION_DOT><MEAN_MOTION_DDOT>0</MEAN_MOTION_DDOT></tleParameters></data></segment></body></omm>
<omm id="CCSDS_OMM_VERS" version="2.0">
<header><CREATION_DATE/><ORIGINATOR/></header><body><segment><metadata><OBJECT_NAME>ONEWEB-0665</OBJECT_NAME><OBJECT_ID>2023-029AF</OBJECT_ID><CENTER_NAME>EARTH</CENTER_NAME><REF_FRAME>TEME</REF_FRAME><TIME_SYSTEM>UTC</TIME_SYSTEM><MEAN_ELEMENT_THEORY>SGP4</MEAN_ELEMENT_THEORY></metadata><data><meanElements><EPOCH>2023-12-03T19:19:05.231424</EPOCH><MEAN_MOTION>13.14502478</MEAN_MOTION><ECCENTRICITY>.0001074</ECCENTRICITY><INCLINATION>87.8967</INCLINATION><RA_OF_ASC_NODE>114.1131</RA_OF_ASC_NODE><ARG_OF_PERICENTER>99.7048</ARG_OF_PERICENTER><MEAN_ANOMALY>260.4203</MEAN_ANOMALY></meanElements><tleParameters><EPHEMERIS_TYPE>0</EPHEMERIS_TYPE><CLASSIFICATION_TYPE>U</CLASSIFICATION_TYPE><NORAD_CAT_ID>55825</NORAD_CAT_ID><ELEMENT_SET_NO>999</ELEMENT_SET_NO><REV_AT_EPOCH>3839</REV_AT_EPOCH><BSTAR>-.14671E-2</BSTAR><MEAN_MOTION_DOT>-.531E-5</MEAN_MOTION_DOT><MEAN_MOTION_DDOT>0</MEAN_MOTION_DDOT></tleParameters></data></segment></body></omm>
<omm id="CCSDS_OMM_VERS" version="2.0">
<header><CREATION_DATE/><ORIGINATOR/></header><body><segment><metadata><OBJECT_NAME>ONEWEB-0666</OBJECT_NAME><OBJECT_ID>2023-029AG</OBJECT_ID><CENTER_NAME>EARTH</CENTER_NAME><REF_FRAME>TEME</REF_FRAME><TIME_SYSTEM>UTC</TIME_SYSTEM><MEAN_ELEMENT_THEORY>SGP4</MEAN_ELEMENT_THEORY></metadata><data><meanElements><EPOCH>2023-12-03T19:57:33.577632</EPOCH><MEAN_MOTION>13.20768959</MEAN_MOTION><ECCENTRICITY>.0002065</ECCENTRICITY><INCLINATION>87.9194</INCLINATION><RA_OF_ASC_NODE>98.8731</RA_OF_ASC_NODE><ARG_OF_PERICENTER>97.6620</ARG_OF_PERICENTER><MEAN_ANOMALY>262.4748</MEAN_ANOMALY></meanElements><tleParameters><EPHEMERIS_TYPE>0</EPHEMERIS_TYPE><CLASSIFICATION_TYPE>U</CLASSIFICATION_TYPE><NORAD_CAT_ID>55826</NORAD_CAT_ID><ELEMENT_SET_NO>999</ELEMENT_SET_NO><REV_AT_EPOCH>3955</REV_AT_EPOCH><BSTAR>.2483E-3</BSTAR><MEAN_MOTION_DOT>.114E-5</MEAN_MOTION_DOT><MEAN_MOTION_DDOT>0</MEAN_MOTION_DDOT></tleParameters></data></segment></body></omm>
<omm id="CCSDS_OMM_VERS" version="2.0">
<header><CREATION_DATE/><ORIGINATOR/></header><body><segment><metadata><OBJECT_NAME>ONEWEB-0667</OBJECT_NAME><OBJECT_ID>2023-029AH</OBJECT_ID><CENTER_NAME>EARTH</CENTER_NAME><REF_FRAME>TEME</REF_FRAME><TIME_SYSTEM>UTC</TIME_SYSTEM><MEAN_ELEMENT_THEORY>SGP4</MEAN_ELEMENT_THEORY></metadata><data><meanElements><EPOCH>2023-12-03T08:53:53.781504</EPOCH><MEAN_MOTION>13.20771109</MEAN_MOTION><ECCENTRICITY>.0001109</ECCENTRICITY><INCLINATION>87.9194</INCLINATION><RA_OF_ASC_NODE>98.8994</RA_OF_ASC_NODE><ARG_OF_PERICENTER>95.8092</ARG_OF_PERICENTER><MEAN_ANOMALY>264.3168</MEAN_ANOMALY></meanElements><tleParameters><EPHEMERIS_TYPE>0</EPHEMERIS_TYPE><CLASSIFICATION_TYPE>U</CLASSIFICATION_TYPE><NORAD_CAT_ID>55827</NORAD_CAT_ID><ELEMENT_SET_NO>999</ELEMENT_SET_NO><REV_AT_EPOCH>3880</REV_AT_EPOCH><BSTAR>-.13481E-2</BSTAR><MEAN_MOTION_DOT>-.535E-5</MEAN_MOTION_DOT><MEAN_MOTION_DDOT>0</MEAN_MOTION_DDOT></tleParameters></data></segment></body></omm>
<omm id="CCSDS_OMM_VERS" version="2.0">
<header><CREATION_DATE/><ORIGINATOR/></header><body><segment><metadata><OBJECT_NAME>ONEWEB-0669</OBJECT_NAME><OBJECT_ID>2023-029AJ</OBJECT_ID><CENTER_NAME>EARTH</CENTER_NAME><REF_FRAME>TEME</REF_FRAME><TIME_SYSTEM>UTC</TIME_SYSTEM><MEAN_ELEMENT_THEORY>SGP4</MEAN_ELEMENT_THEORY></metadata><data><meanElements><EPOCH>2023-12-03T08:46:14.413440</EPOCH><MEAN_MOTION>13.20770338</MEAN_MOTION><ECCENTRICITY>.000214</ECCENTRICITY><INCLINATION>87.9194</INCLINATION><RA_OF_ASC_NODE>98.9392</RA_OF_ASC_NODE><ARG_OF_PERICENTER>79.1532</ARG_OF_PERICENTER><MEAN_ANOMALY>280.9842</MEAN_ANOMALY></meanElements><tleParameters><EPHEMERIS_TYPE>0</EPHEMERIS_TYPE><CLASSIFICATION_TYPE>U</CLASSIFICATION_TYPE><NORAD_CAT_ID>55828</NORAD_CAT_ID><ELEMENT_SET_NO>999</ELEMENT_SET_NO><REV_AT_EPOCH>3880</REV_AT_EPOCH><BSTAR>-.10669E-3</BSTAR><MEAN_MOTION_DOT>-.3E-6</MEAN_MOTION_DOT><MEAN_MOTION_DDOT>0</MEAN_MOTION_DDOT></tleParameters></data></segment></body></omm>

</ndm>
